[{"OBJECT_NAME":"PHISAT 2","OBJECT_ID":"2024-149C","EPOCH":"2026-03-09T18:55:12.732384","MEAN_MOTION":15.29548632,"ECCENTRICITY":0.00011753,"INCLINATION":97.3806,"RA_OF_ASC_NODE":148.6498,"ARG_OF_PERICENTER":168.623,"MEAN_ANOMALY":191.5037,"EPHEMERIS_TYPE":0,"CLASSIFICATION_TYPE":"U","NORAD_CAT_ID":60470,"ELEMENT_SET_NO":999,"REV_AT_EPOCH":8679,"BSTAR":0.00031420974,"MEAN_MOTION_DOT":8.925e-5,"MEAN_MOTION_DDOT":0},{"OBJECT_NAME":"STARLINK-36054","OBJECT_ID":"2025-278X","EPOCH":"2026-03-09T12:35:45.303360","MEAN_MOTION":15.27616009,"ECCENTRICITY":0.0001475,"INCLINATION":43.0022,"RA_OF_ASC_NODE":115.3149,"ARG_OF_PERICENTER":293.8382,"MEAN_ANOMALY":66.2315,"EPHEMERIS_TYPE":0,"CLASSIFICATION_TYPE":"U","NORAD_CAT_ID":66812,"ELEMENT_SET_NO":999,"REV_AT_EPOCH":1518,"BSTAR":0.001053,"MEAN_MOTION_DOT":0.0002886,"MEAN_MOTION_DDOT":0}]
